[{"OBJECT_NAME":"VSP RF B1","OBJECT_ID":"2024-043AR","EPOCH":"2026-03-09T22:40:29.479296","MEAN_MOTION":15.26694159,"ECCENTRICITY":0.00102608,"INCLINATION":97.5446,"RA_OF_ASC_NODE":204.7052,"ARG_OF_PERICENTER":220.7435,"MEAN_ANOMALY":139.3037,"EPHEMERIS_TYPE":0,"CLASSIFICATION_TYPE":"U","NORAD_CAT_ID":59137,"ELEMENT_SET_NO":999,"REV_AT_EPOCH":11187,"BSTAR":0.00024406819,"MEAN_MOTION_DOT":6.341e-5,"MEAN_MOTION_DDOT":0},{"OBJECT_NAME":"STARLINK-33556","OBJECT_ID":"2024-220X","EPOCH":"2026-03-09T10:17:38.158368","MEAN_MOTION":15.27575525,"ECCENTRICITY":0.00016157,"INCLINATION":43.0048,"RA_OF_ASC_NODE":206.8151,"ARG_OF_PERICENTER":294.5521,"MEAN_ANOMALY":65.5162,"EPHEMERIS_TYPE":0,"CLASSIFICATION_TYPE":"U","NORAD_CAT_ID":62109,"ELEMENT_SET_NO":999,"REV_AT_EPOCH":7317,"BSTAR":0.0015048592,"MEAN_MOTION_DOT":0.00041375,"MEAN_MOTION_DDOT":0}]
